STARLINK-30544          
1 58055U 23158E   26068.29715545 -.00012434  00000+0 -44228-3 0  9990
2 58055  43.0065  28.9469 0002176 251.3616 108.6999 15.27633848133513
2025-313BC              
1 67298U 25313BC  26068.18968176  .00075331  00000+0  26410-2 0  9997
2 67298  97.3985 144.8110 0008478 328.9209  31.1528 15.29126358  7890
